STARLINK-2406           
1 47821U 21018AL  26068.73492440 -.00002824  00000+0 -83277-4 0  9997
2 47821  53.1598 242.5448 0001116 111.8067 248.3053 15.30194477276738
FLOCK 4G-5              
1 62663U 25009BG  26068.45638436  .00011278  00000+0  40688-3 0  9997
2 62663  97.4058 151.2478 0002094 314.5072  45.5996 15.28679529 63699
